100P/Hartley,e,25.5665,37.6873,181.9699,3.431806,0.1550315,0.41208029,8.6899,10/06.0/2022,2000,g  9.0,8.0
# From MPEC 2022-K19
101P/Chernykh,e,5.0512,116.2110,277.7513,5.807845,0.0704177,0.59634824,70.2045,10/06.0/2022,2000,g 10.0,4.8
# From MPEC 2022-C56
102P/Shoemaker,e,25.8832,339.3676,20.6265,3.815742,0.1322317,0.45715425,82.1677,10/06.0/2022,2000,g  6.5,8.0
# From MPEC 2018-HA5
103P/Hartley,e,13.6097,219.7485,181.2930,3.475130,0.1521414,0.69369861,303.4733,10/06.0/2022,2000,g  8.5,8.0
# From MPEC 2022-P82
104P/Kowal,e,5.7022,207.2069,227.2528,3.208240,0.1715157,0.66556397,45.8568,10/06.0/2022,2000,g 16.0,4.0
# From MPC109147
105P/Singer Brewster,e,9.1685,192.3967,46.4505,3.469081,0.1525395,0.40890108,231.8511,10/06.0/2022,2000,g 11.5,6.0
# From MPEC 2022-GA9
106P/Schuster,e,19.5368,48.8733,353.7062,3.764771,0.1349262,0.59391042,55.7466,10/06.0/2022,2000,g 14.0,4.8
# From MPEC 2015-M77
107P/Wilson-Harrington,e,2.7993,266.7746,95.4418,2.624689,0.2317861,0.63171484,9.8135,10/06.0/2022,2000,g  9.0,4.0
# From MPEC 2022-P82
108P/Ciffreo,e,11.4364,50.2804,354.4602,3.740172,0.1362595,0.55604550,53.2548,10/06.0/2022,2000,g  8.0,12.0
# From  105, 420
109P/Swift-Tuttle,e,113.8349,139.1572,153.0231,26.18639,0.0073551,0.96260970,80.1018,10/06.0/2022,2000,g  4.0,6.0
# From MPEC 2022-P82
110P/Hartley,e,11.7048,287.5268,167.4555,3.603640,0.1440761,0.31859159,50.8093,10/06.0/2022,2000,g  1.0,12.0
# From MPC 75718
111P/Helin-Roman-Crockett,e,4.2259,89.7561,1.0407,4.150229,0.1165725,0.10668825,55.6057,10/06.0/2022,2000,g  5.0,8.0
# From MPEC 2021-S45
112P/Urata-Niijima,e,24.2104,31.8330,21.4677,3.524694,0.1489437,0.59040943,144.5585,10/06.0/2022,2000,g 14.0,6.0
# From MPEC 2022-ST7
113P/Spitaler,e,5.2899,306.6771,115.5251,3.691094,0.1389861,0.41975280,17.5875,10/06.0/2022,2000,g 13.5,4.0
# From MPEC 2022-K19
114P/Wiseman-Skiff,e,18.2843,271.0294,172.7442,3.543358,0.1477684,0.55524324,147.1359,10/06.0/2022,2000,g 11.5,6.0
# From MPEC 2021-UA9
115P/Maury,e,11.6772,176.0064,121.0011,4.272025,0.1116229,0.51814502,89.1487,10/06.0/2022,2000,g 10.5,6.0
# From MPEC 2022-QD9
116P/Wild,e,3.6034,20.9802,173.2823,3.490120,0.1511623,0.37050865,12.2604,10/06.0/2022,2000,g  2.5,10.0
# From MPEC 2022-ST7
117P/Helin-Roman-Alu,e,8.7039,58.8411,222.9669,4.082779,0.1194731,0.25549751,10.7647,10/06.0/2022,2000,g  2.5,8.0
# From MPEC 2022-ST7
118P/Shoemaker-Levy,e,10.0919,142.0969,314.8342,3.346329,0.1610094,0.45344044,352.0575,10/06.0/2022,2000,g 12.0,4.0
# From MPEC 2022-ST7
119P/Parker-Hartley,e,7.3935,104.5711,322.0648,3.805084,0.1327877,0.38830876,7.3024,10/06.0/2022,2000,g  3.5,8.0
# From MPEC 2022-CN4
120P/Mueller,e,8.4899,358.6718,36.6457,3.964806,0.1248450,0.37484905,64.4882,10/06.0/2022,2000,g 12.0,4.0
# From MPEC 2021-Y10
121P/Shoemaker-Holt,e,20.1651,94.1150,11.5856,4.583610,0.1004367,0.18610386,333.3575,10/06.0/2022,2000,g  6.5,8.0
# From MPC 75718
122P/de Vico,e,85.4583,79.6434,12.9919,17.62375,0.0133216,0.96230519,131.7402,10/06.0/2022,2000,g  7.5,5.2
# From MPEC 2021-F20
123P/West-Hartley,e,15.2850,45.9259,104.1028,3.879581,0.1289813,0.44462288,173.1666,10/06.0/2022,2000,g 12.2,4.0
# From MPEC 2022-K19
124P/Mrkos,e,31.7214,0.1040,185.1980,3.356686,0.1602648,0.49375323,143.6698,10/06.0/2022,2000,g 13.5,2.8
# From MPEC 2015-M77
125P/Spacewatch,e,9.9864,153.1485,87.1971,3.127542,0.1781966,0.51213376,267.6315,10/06.0/2022,2000,g  9.0,4.0
# From MPC 66205
126P/IRAS,e,45.8762,357.8723,356.5877,5.634468,0.0736927,0.69638364,339.9328,10/06.0/2022,2000,g  9.0,4.0
# From MPEC 2022-ST7
127P/Holt-Olmstead,e,14.3011,13.6046,6.2789,3.453725,0.1535580,0.35977627,8.6836,10/06.0/2022,2000,g 11.0,6.0
# From MPC 89014
128P/Shoemaker-Holt,e,4.3700,214.3212,210.2638,4.489010,0.1036283,0.32167633,217.0265,10/06.0/2022,2000,g  8.5,4.0
# From MPEC 2022-K19
129P/Shoemaker-Levy,e,3.4423,184.8630,307.4603,4.287685,0.1110120,0.08473545,353.8757,10/06.0/2022,2000,g 11.0,4.0
# From MPEC 2022-ED3
130P/McNaught-Hughes,e,6.0627,70.1882,246.0906,3.383203,0.1583842,0.46121047,271.8229,10/06.0/2022,2000,g 10.0,6.0
# From MPC102101
131P/Mueller,e,7.3604,214.1465,179.0538,3.679050,0.1396691,0.34459696,188.4801,10/06.0/2022,2000,g 11.0,4.0
# From MPEC 2022-O08
132P/Helin-Roman-Alu,e,5.3827,173.9951,216.3781,3.887169,0.1286038,0.56470058,42.0326,10/06.0/2022,2000,g 11.0,6.0
# From MPC 94676
133P/Elst-Pizarro,e,1.3897,160.0984,131.8986,3.165539,0.1749978,0.15648276,258.1319,10/06.0/2022,2000,g 15.4,2.0
# From MPC 89012
134P/Kowal-Vavrova,e,4.3348,202.0521,18.8562,6.264011,0.0628674,0.58511907,192.8320,10/06.0/2022,2000,g 11.5,4.0
# From MPEC 2022-OB6
135P/Shoemaker-Levy,e,6.0634,213.0266,22.3222,3.800086,0.1330497,0.29472029,24.1684,10/06.0/2022,2000,g  7.0,8.0
# From MPEC 2022-K19
136P/Mueller,e,9.4243,137.4385,225.0565,4.190141,0.1149109,0.29337203,265.8217,10/06.0/2022,2000,g 11.0,4.0
# From MPEC 2022-K19
137P/Shoemaker-Levy,e,4.8570,232.9636,141.1302,4.521227,0.1025226,0.57385254,142.6478,10/06.0/2022,2000,g 11.0,4.0
# From MPEC 2016-U66
138P/Shoemaker-Levy,e,10.0904,309.2966,95.5700,3.620614,0.1430641,0.53122103,179.0094,10/06.0/2022,2000,g 15.0,6.0
# From MPEC 2020-HN5
139P/Vaisala-Oterma,e,2.3362,242.1417,165.7435,4.519287,0.1025886,0.24772009,180.5062,10/06.0/2022,2000,g  9.5,4.0
# From MPEC 2015-E14
140P/Bowell-Skiff,e,3.8455,343.2252,172.7502,6.417701,0.0606226,0.69322359,158.8578,10/06.0/2022,2000,g 11.5,6.0
# From MPEC 2022-K19
141P/Machholz,e,13.9518,241.8034,153.5886,3.057561,0.1843492,0.73599402,121.4022,10/06.0/2022,2000,g 12.0,12.0
# From MPEC 2022-SU8
141P-I/Machholz,e,13.9516,241.8081,153.5629,3.048212,0.1851980,0.73520124,122.0429,10/06.0/2022,2000,g 17.5,4.0
# From MPEC 2021-Y10
142P/Ge-Wang,e,12.2514,175.9319,174.0007,4.999574,0.0881667,0.49715598,45.0775,10/06.0/2022,2000,g  8.5,6.0
# From MPEC 2022-ST7
143P/Kowal-Mrkos,e,4.7125,245.0224,320.3258,4.274387,0.1115304,0.41259902,180.1568,10/06.0/2022,2000,g 13.5,2.0
# From MPC104795
144P/Kushida,e,3.9303,243.0062,216.3569,3.827512,0.1316222,0.63513675,297.2613,10/06.0/2022,2000,g  8.5,8.0
# From MPC108598
145P/Shoemaker-Levy,e,11.2797,26.7957,10.2580,4.136193,0.1171663,0.54225170,217.7940,10/06.0/2022,2000,g 13.5,4.0
# From MPC100284
146P/Shoemaker-LINEAR,e,23.1163,53.3768,317.0124,4.029886,0.1218330,0.64746350,278.4417,10/06.0/2022,2000,g 15.0,4.0
# From MPC 75720
147P/Kushida-Muramatsu,e,2.3082,91.8616,348.1550,4.033804,0.1216555,0.21757775,308.2645,10/06.0/2022,2000,g 14.0,4.0
# From MPEC 2021-S45
148P/Anderson-LINEAR,e,3.6580,89.2062,8.0378,3.618355,0.1431981,0.54988022,16.3689,10/06.0/2022,2000,g 16.0,2.0
# From MPC 75720
149P/Mueller,e,34.3290,144.0064,31.0068,4.132200,0.1173362,0.32262860,178.2080,10/06.0/2022,2000,g  8.0,8.0
# From MPEC 2022-ST7
150P/LONEOS,e,18.5203,272.1603,245.8508,3.876270,0.1291466,0.54874935,292.4085,10/06.0/2022,2000,g 13.5,4.0
# From MPEC 2022-K19
151P/Helin,e,4.7282,143.1535,216.0984,5.762993,0.0712413,0.57381899,181.6476,10/06.0/2022,2000,g 10.0,6.0
# From MPEC 2022-ST7
152P/Helin-Lawrence,e,9.8801,91.8569,163.9931,4.476703,0.1040559,0.30858910,27.5847,10/06.0/2022,2000,g 11.5,4.0
# From MPC 46101
153P/Ikeya-Zhang,e,28.0820,93.4052,34.7781,50.40325,0.0027543,0.98972448,0.0000,03/02.8233/2002,2000,g  9.0,4.0
# From MPEC 2022-K19
154P/Brewington,e,17.6322,343.0337,47.8945,4.798443,0.0937678,0.67607356,302.3824,10/06.0/2022,2000,g  2.5,12.0
# From MPEC 2021-F20
155P/Shoemaker,e,6.4001,97.1745,14.5617,6.570540,0.0585198,0.72641543,61.7963,10/06.0/2022,2000,g 13.8,4.0
# From MPEC 2022-GA9
156P/Russell-LINEAR,e,17.2683,35.3449,0.4660,3.461931,0.1530123,0.61509905,105.1075,10/06.0/2022,2000,g 15.5,2.0
# From MPEC 2022-ST7
157P/Tritton,e,12.4208,287.5473,155.0582,3.545550,0.1476314,0.55668225,3.8673,10/06.0/2022,2000,g 10.0,4.0
# From MPEC 2022-T23
157P-B/Tritton,e,12.4419,286.8648,153.5781,2.926234,0.1968976,0.47294059,5.6319,10/06.0/2022,2000,g 15.7,4.0
# From MPEC 2022-ST7
158P/Kowal-LINEAR,e,7.6285,134.0353,187.2899,5.276057,0.0813280,0.08736772,29.8362,10/06.0/2022,2000,g  9.0,4.0
# From MPEC 2021-N06
159P/LONEOS,e,23.4795,54.9499,4.5660,5.852673,0.0696102,0.38239876,111.1721,10/06.0/2022,2000,g 10.0,4.0
# From MPEC 2022-K19
160P/LINEAR,e,15.6140,333.3609,12.7663,3.776376,0.1343047,0.52618991,139.4565,10/06.0/2022,2000,g 15.5,2.0
# From MPC 75721
161P/Hartley-IRAS,e,95.8023,1.5841,47.0144,7.718623,0.0459615,0.83532693,290.3977,10/06.0/2022,2000,g  8.5,6.0
# From MPEC 2022-M21
162P/SidingSpring,e,27.5626,30.8899,357.1779,3.091976,0.1812800,0.58313427,120.9142,10/06.0/2022,2000,g 12.0,4.0
# From MPEC 2021-S45
163P/NEAT,e,12.7137,102.0704,349.5587,3.765283,0.1348987,0.45239474,156.1782,10/06.0/2022,2000,g 14.5,4.0
# From MPEC 2021-F20
164P/Christensen,e,16.2666,88.2691,325.8580,3.654898,0.1410559,0.54079343,223.9460,10/06.0/2022,2000,g 11.0,4.0
# From MPC 75721
165P/LINEAR,e,15.8944,0.8709,125.8204,17.84677,0.0130727,0.61611642,106.9019,10/06.0/2022,2000,g 11.5,2.0
# From MPC 75722
166P/NEAT,e,15.3816,64.3663,321.6018,13.81475,0.0191951,0.38454005,142.6755,10/06.0/2022,2000,g  5.5,4.0
# From MPC 75722
167P/CINEOS,e,19.1079,295.7168,344.7726,16.24526,0.0150527,0.27031859,117.7347,10/06.0/2022,2000,g  9.5,2.0
# From MPC102101
168P/Hergenrother,e,21.6246,355.4516,15.0213,3.582388,0.1453601,0.62119938,168.1869,10/06.0/2022,2000,g 15.5,4.0
# From MPEC 2022-O01
169P/NEAT,e,11.2987,176.1011,218.0477,2.602125,0.2348074,0.76832790,20.7376,10/06.0/2022,2000,g 16.0,2.0
# From MPEC 2022-ST7
170P/Christensen,e,10.1234,142.9243,225.4749,4.204017,0.1143424,0.30459954,337.5830,10/06.0/2022,2000,g 12.0,4.0
# From MPC102102
171P/Spahr,e,21.9430,101.6882,347.0457,3.554114,0.1470981,0.50199931,200.3101,10/06.0/2022,2000,g 13.5,4.0
# From MPEC 2022-C56
172P/Yeung,e,11.2255,30.8772,209.3043,4.216269,0.1138444,0.20468248,231.8533,10/06.0/2022,2000,g 13.0,4.0
# From MPEC 2022-K19
173P/Mueller,e,16.4899,100.3891,29.1493,5.708677,0.0722605,0.26133420,21.2147,10/06.0/2022,2000,g  7.5,4.0
# From MPC 92985
